{"type":"Feature","properties":{"name":"Saryarka","source":"Physical-geographic zone 5, clipped to Kazakhstan state border"},"geometry":{"type":"Polygon","coordinates":[[[66.75,53.7],[67.7,53.78],[68.7,53.72],[69.65,53.82],[70.8,53.62],[71.85,53.48],[72.95,53.42],[74.15,53.3],[75.25,53.15],[76.35,52.92],[77.45,52.58],[78.25,52.15],[79.05,51.9],[79.26009997322248,51.81035734475841],[79.34049225,51.70598221],[79.35101318,51.69224548],[79.42741394,51.59251404],[79.47953033,51.52416229],[79.50151825,51.49044037],[79.50974274,51.47783661],[79.52218628,51.4720993],[79.53261566,51.45992279],[79.55021667,51.43112946],[79.552948,51.42665863],[79.57023621,51.41100693],[79.59046936,51.37453461],[79.63583374,51.31708908],[79.63861847,51.30929565],[79.64902496,51.29985428],[79.65133667,51.29701233],[79.68288422,51.25823975],[79.73899078,51.18401337],[79.75888062,51.1540184],[79.78622437,51.12400436],[79.7950592,51.11429596],[79.80422974,51.0939064],[79.85016632,51.03194427],[79.86898804,51.01003265],[79.87388611,51.00335693],[79.91835785,50.9426651],[79.92973328,50.93432999],[79.94810486,50.90123749],[79.94933319,50.89979935],[79.95588684,50.91374207],[79.95749664,50.91085052],[79.9684906,50.89104462],[79.97806549,50.87983322],[80.0207901,50.82972717],[80.03630829,50.81562424],[80.05382538,50.7896347],[80.06826019,50.76820374],[80.0786972,50.75709152],[80.08166504,50.76231003],[80.07198334,50.78455353],[80.07115936,50.78857422],[80.06469727,50.82026291],[80.06491089,50.8321228],[80.06497192,50.83557892],[80.06517792,50.84699631],[80.06881714,50.84905624],[80.06955719,50.84947586],[80.08507538,50.84958649],[80.08592987,50.84736633],[80.08837891,50.84101105],[80.09196472,50.831707],[80.10881042,50.83081818],[80.13773346,50.82928848],[80.17128754,50.82946777],[80.18993378,50.83170319],[80.19262695,50.83202744],[80.1905365,50.88780975],[80.1907959,50.88884735],[80.19408417,50.90217972],[80.19995117,50.90601349],[80.23867798,50.9088707],[80.24597931,50.91246414],[80.25100708,50.92704391],[80.27381897,50.92866135],[80.27719116,50.92863083],[80.27886963,50.92861557],[80.32225037,50.92820358],[80.32457733,50.93480682],[80.33872986,50.9369545],[80.37667847,50.93611526],[80.38185883,50.94063568],[80.39136505,50.94488144],[80.41095734,50.96136093],[80.42974091,50.97418976],[80.46884155,50.97445297],[80.46537018,50.99369049],[80.46727753,51.01058197],[80.47869873,51.03125763],[80.47823334,51.08086014],[80.4744339,51.10124588],[80.44263458,51.12010574],[80.43590546,51.12680435],[80.43974514988072,51.18762297473982],[80.55,51.12],[80.95,50.4],[80.62,49.85],[80.22,49.2],[79.25,48.82],[78.25,48.42],[77.28,48.05],[76.48,47.55],[75.5,47.12],[74.38,46.88],[73.25,46.76],[72.12,46.76],[71.2,46.88],[70.3,46.76],[69.25,46.95],[68.4,46.82],[67.68,47.15],[66.9,47.45],[66.23,48.02],[65.72,48.56],[65.12,48.88],[65.08,49.42],[65.45,49.78],[65.72,50.12],[65.63,50.62],[65.82,51.08],[65.74,51.62],[65.88,52.15],[65.72,52.7],[65.84,53.12],[65.75,53.75],[66.75,53.7]]]}}